QIANFAN-73              
1 63159U 25046A   25213.14045483  .00000146  00000+0  20707-3 0  9992
2 63159  88.9858 333.7885 0016387 145.3027 214.9196 13.50958346 29373
QIANFAN-74              
1 63160U 25046B   25213.19811563  .00000142  00000+0  20218-3 0  9992
2 63160  88.9858 333.6712 0001964 102.1063 258.0308 13.50962868 29445
QIANFAN-75              
1 63161U 25046C   25213.55610896  .00000155  00000+0  22141-3 0  9990
2 63161  88.9859 333.8662 0017520 147.3908 212.8329 13.50959413 29361
QIANFAN-76              
1 63162U 25046D   25213.55182049  .00000181  00000+0  26192-3 0  9994
2 63162  88.9859 333.8479 0015083 147.2365 212.9724 13.50955510 29371
QIANFAN-77              
1 63163U 25046E   25212.86867857  .00000344  00000+0  24098-3 0  9999
2 63163  88.9856 333.0221 0016567 134.0758 226.1786 13.96004766 29771
QIANFAN-78              
1 63164U 25046F   25213.22277763  .00000160  00000+0  22901-3 0  9999
2 63164  88.9857 333.7470 0016366 150.6881 209.5192 13.50958702 29408
QIANFAN-79              
1 63165U 25046G   25213.54776139  .00000173  00000+0  24981-3 0  9990
2 63165  88.9862 333.8160 0016113 148.2179 211.9948 13.50960949 29407
QIANFAN-80              
1 63166U 25046H   25213.49026857  .00000152  00000+0  21691-3 0  9992
2 63166  88.9859 333.5325 0015000 151.9411 208.2552 13.50961179 29549
